TRANSPORTER-10 OBJECT AG
1 59128U 24043AG  26068.92552531  .00009498  00000+0  32170-3 0  9997
2 59128  97.5471 205.7101 0009300 226.5958 133.4509 15.30759727111920
STARLINK-31502          
1 59301U 24056F   26067.81125089 -.00005629  00000+0 -19549-3 0  9994
2 59301  43.0012 228.4246 0001841 269.2505  90.8136 15.27529889111108
